[{"OBJECT_NAME":"STARLINK-31310","OBJECT_ID":"2024-041U","EPOCH":"2026-03-09T00:24:35.411328","MEAN_MOTION":15.27495203,"ECCENTRICITY":0.00031514,"INCLINATION":43.0031,"RA_OF_ASC_NODE":314.9263,"ARG_OF_PERICENTER":243.6579,"MEAN_ANOMALY":116.395,"EPHEMERIS_TYPE":0,"CLASSIFICATION_TYPE":"U","NORAD_CAT_ID":59092,"ELEMENT_SET_NO":999,"REV_AT_EPOCH":11416,"BSTAR":0.00067356117,"MEAN_MOTION_DOT":0.00018272,"MEAN_MOTION_DDOT":0},{"OBJECT_NAME":"TRANSPORTER-12 OBJECT BT","OBJECT_ID":"2025-009BT","EPOCH":"2026-03-09T17:08:24.281088","MEAN_MOTION":15.27872239,"ECCENTRICITY":0.00036816,"INCLINATION":97.4094,"RA_OF_ASC_NODE":151.5992,"ARG_OF_PERICENTER":313.5044,"MEAN_ANOMALY":46.5889,"EPHEMERIS_TYPE":0,"CLASSIFICATION_TYPE":"U","NORAD_CAT_ID":62674,"ELEMENT_SET_NO":999,"REV_AT_EPOCH":12136,"BSTAR":0.000510288,"MEAN_MOTION_DOT":0.00013824,"MEAN_MOTION_DDOT":0}]
