STARLINK-31310          
1 59092U 24041U   26068.01707652  .00018272  00000+0  67356-3 0  9995
2 59092  43.0031 314.9263 0003151 243.6579 116.3950 15.27495203114168
TRANSPORTER-12 OBJECT BT
1 62674U 25009BT  26068.71416991  .00013824  00000+0  51029-3 0  9998
2 62674  97.4094 151.5992 0003682 313.5044  46.5889 15.27872239121360
